[{"OBJECT_NAME":"STARLINK-36900","OBJECT_ID":"2026-038N","EPOCH":"2026-03-24T00:02:20.101920","MEAN_MOTION":15.49184011,"ECCENTRICITY":0.00011996,"INCLINATION":97.2851,"RA_OF_ASC_NODE":93.7703,"ARG_OF_PERICENTER":87.4725,"MEAN_ANOMALY":272.6664,"EPHEMERIS_TYPE":0,"CLASSIFICATION_TYPE":"U","NORAD_CAT_ID":67973,"ELEMENT_SET_NO":999,"REV_AT_EPOCH":542,"BSTAR":0.001211113,"MEAN_MOTION_DOT":0.00066324,"MEAN_MOTION_DDOT":0},{"OBJECT_NAME":"STARLINK-36901","OBJECT_ID":"2026-038P","EPOCH":"2026-03-24T06:00:02.000160","MEAN_MOTION":15.44157959,"ECCENTRICITY":0.00019555,"INCLINATION":97.2854,"RA_OF_ASC_NODE":94.156,"ARG_OF_PERICENTER":79.7003,"MEAN_ANOMALY":171.3008,"EPHEMERIS_TYPE":0,"CLASSIFICATION_TYPE":"U","NORAD_CAT_ID":67974,"ELEMENT_SET_NO":999,"REV_AT_EPOCH":554,"BSTAR":-0.055172421,"MEAN_MOTION_DOT":-0.02223047,"MEAN_MOTION_DDOT":0},{"OBJECT_NAME":"STARLINK-36883","OBJECT_ID":"2026-038Q","EPOCH":"2026-03-24T06:00:02.000160","MEAN_MOTION":15.49131725,"ECCENTRICITY":0.00018306,"INCLINATION":97.2857,"RA_OF_ASC_NODE":94.1433,"ARG_OF_PERICENTER":97.0143,"MEAN_ANOMALY":129.8657,"EPHEMERIS_TYPE":0,"CLASSIFICATION_TYPE":"U","NORAD_CAT_ID":67975,"ELEMENT_SET_NO":999,"REV_AT_EPOCH":554,"BSTAR":0.00060512744,"MEAN_MOTION_DOT":0.00032893,"MEAN_MOTION_DDOT":0},{"OBJECT_NAME":"STARLINK-36880","OBJECT_ID":"2026-038R","EPOCH":"2026-03-24T06:29:57.351552","MEAN_MOTION":15.49205858,"ECCENTRICITY":9.591e-5,"INCLINATION":97.2866,"RA_OF_ASC_NODE":94.0166,"ARG_OF_PERICENTER":118.6292,"MEAN_ANOMALY":241.5056,"EPHEMERIS_TYPE":0,"CLASSIFICATION_TYPE":"U","NORAD_CAT_ID":67976,"ELEMENT_SET_NO":999,"REV_AT_EPOCH":546,"BSTAR":0.0010201607,"MEAN_MOTION_DOT":0.0005582,"MEAN_MOTION_DDOT":0},{"OBJECT_NAME":"STARLINK-36904","OBJECT_ID":"2026-038S","EPOCH":"2026-03-24T06:00:02.000160","MEAN_MOTION":15.49168131,"ECCENTRICITY":0.00010837,"INCLINATION":97.286,"RA_OF_ASC_NODE":94.1383,"ARG_OF_PERICENTER":111.5698,"MEAN_ANOMALY":104.1949,"EPHEMERIS_TYPE":0,"CLASSIFICATION_TYPE":"U","NORAD_CAT_ID":67977,"ELEMENT_SET_NO":999,"REV_AT_EPOCH":554,"BSTAR":0.00072178176,"MEAN_MOTION_DOT":0.00039332,"MEAN_MOTION_DDOT":0},{"OBJECT_NAME":"STARLINK-36364","OBJECT_ID":"2026-038T","EPOCH":"2026-03-24T06:00:02.000160","MEAN_MOTION":15.45387451,"ECCENTRICITY":0.00013059,"INCLINATION":97.2853,"RA_OF_ASC_NODE":94.1941,"ARG_OF_PERICENTER":122.9231,"MEAN_ANOMALY":223.3407,"EPHEMERIS_TYPE":0,"CLASSIFICATION_TYPE":"U","NORAD_CAT_ID":67978,"ELEMENT_SET_NO":999,"REV_AT_EPOCH":554,"BSTAR":-0.053960345,"MEAN_MOTION_DOT":-0.0226178,"MEAN_MOTION_DDOT":0},{"OBJECT_NAME":"STARLINK-36359","OBJECT_ID":"2026-038U","EPOCH":"2026-03-24T06:00:02.000160","MEAN_MOTION":15.46357966,"ECCENTRICITY":0.00020489,"INCLINATION":97.2855,"RA_OF_ASC_NODE":94.149,"ARG_OF_PERICENTER":98.0003,"MEAN_ANOMALY":142.7525,"EPHEMERIS_TYPE":0,"CLASSIFICATION_TYPE":"U","NORAD_CAT_ID":67979,"ELEMENT_SET_NO":999,"REV_AT_EPOCH":554,"BSTAR":-0.052685724,"MEAN_MOTION_DOT":-0.0228145,"MEAN_MOTION_DDOT":0},{"OBJECT_NAME":"STARLINK-36882","OBJECT_ID":"2026-038V","EPOCH":"2026-03-24T06:00:02.000160","MEAN_MOTION":15.49277457,"ECCENTRICITY":0.00010815,"INCLINATION":97.286,"RA_OF_ASC_NODE":94.1389,"ARG_OF_PERICENTER":98.6763,"MEAN_ANOMALY":119.7419,"EPHEMERIS_TYPE":0,"CLASSIFICATION_TYPE":"U","NORAD_CAT_ID":67980,"ELEMENT_SET_NO":999,"REV_AT_EPOCH":554,"BSTAR":-0.002893233,"MEAN_MOTION_DOT":-0.0015487,"MEAN_MOTION_DDOT":0},{"OBJECT_NAME":"STARLINK-36874","OBJECT_ID":"2026-038W","EPOCH":"2026-03-24T06:00:02.000160","MEAN_MOTION":15.45311537,"ECCENTRICITY":0.00017652,"INCLINATION":97.2853,"RA_OF_ASC_NODE":94.203,"ARG_OF_PERICENTER":111.6032,"MEAN_ANOMALY":250.0539,"EPHEMERIS_TYPE":0,"CLASSIFICATION_TYPE":"U","NORAD_CAT_ID":67981,"ELEMENT_SET_NO":999,"REV_AT_EPOCH":554,"BSTAR":-0.052862238,"MEAN_MOTION_DOT":-0.02216507,"MEAN_MOTION_DDOT":0},{"OBJECT_NAME":"STARLINK-36879","OBJECT_ID":"2026-038X","EPOCH":"2026-03-24T06:06:59.640480","MEAN_MOTION":15.49202869,"ECCENTRICITY":0.00011388,"INCLINATION":97.2876,"RA_OF_ASC_NODE":94.0385,"ARG_OF_PERICENTER":92.5694,"MEAN_ANOMALY":267.5687,"EPHEMERIS_TYPE":0,"CLASSIFICATION_TYPE":"U","NORAD_CAT_ID":67982,"ELEMENT_SET_NO":999,"REV_AT_EPOCH":546,"BSTAR":0.0013011169,"MEAN_MOTION_DOT":0.00071352,"MEAN_MOTION_DDOT":0},{"OBJECT_NAME":"STARLINK-36867","OBJECT_ID":"2026-038Y","EPOCH":"2026-03-24T07:20:53.709216","MEAN_MOTION":15.4918841,"ECCENTRICITY":0.00013536,"INCLINATION":97.2842,"RA_OF_ASC_NODE":94.1212,"ARG_OF_PERICENTER":65.1236,"MEAN_ANOMALY":295.0156,"EPHEMERIS_TYPE":0,"CLASSIFICATION_TYPE":"U","NORAD_CAT_ID":67983,"ELEMENT_SET_NO":999,"REV_AT_EPOCH":547,"BSTAR":0.0011159598,"MEAN_MOTION_DOT":0.00061075,"MEAN_MOTION_DDOT":0},{"OBJECT_NAME":"STARLINK-36266","OBJECT_ID":"2026-038Z","EPOCH":"2026-03-24T06:00:02.000160","MEAN_MOTION":15.4579518,"ECCENTRICITY":0.00014312,"INCLINATION":97.2852,"RA_OF_ASC_NODE":94.214,"ARG_OF_PERICENTER":96.6334,"MEAN_ANOMALY":290.9478,"EPHEMERIS_TYPE":0,"CLASSIFICATION_TYPE":"U","NORAD_CAT_ID":67984,"ELEMENT_SET_NO":999,"REV_AT_EPOCH":551,"BSTAR":-0.052520206,"MEAN_MOTION_DOT":-0.02236179,"MEAN_MOTION_DDOT":0},{"OBJECT_NAME":"STARLINK-36802","OBJECT_ID":"2026-038AA","EPOCH":"2026-03-24T04:31:38.642016","MEAN_MOTION":15.75354715,"ECCENTRICITY":0.00020321,"INCLINATION":97.2888,"RA_OF_ASC_NODE":94.2704,"ARG_OF_PERICENTER":47.7218,"MEAN_ANOMALY":312.4219,"EPHEMERIS_TYPE":0,"CLASSIFICATION_TYPE":"U","NORAD_CAT_ID":67985,"ELEMENT_SET_NO":999,"REV_AT_EPOCH":547,"BSTAR":0.0012485506,"MEAN_MOTION_DOT":0.00191706,"MEAN_MOTION_DDOT":0},{"OBJECT_NAME":"STARLINK-36535","OBJECT_ID":"2026-039A","EPOCH":"2026-03-24T06:00:02.000160","MEAN_MOTION":15.42099192,"ECCENTRICITY":0.00013899,"INCLINATION":42.9998,"RA_OF_ASC_NODE":327.474,"ARG_OF_PERICENTER":262.1128,"MEAN_ANOMALY":16.7011,"EPHEMERIS_TYPE":0,"CLASSIFICATION_TYPE":"U","NORAD_CAT_ID":67986,"ELEMENT_SET_NO":999,"REV_AT_EPOCH":521,"BSTAR":-0.047206235,"MEAN_MOTION_DOT":-0.0185679,"MEAN_MOTION_DDOT":0},{"OBJECT_NAME":"STARLINK-36744","OBJECT_ID":"2026-039B","EPOCH":"2026-03-24T06:00:02.000160","MEAN_MOTION":15.44377543,"ECCENTRICITY":0.00016342,"INCLINATION":42.9993,"RA_OF_ASC_NODE":327.3296,"ARG_OF_PERICENTER":253.6911,"MEAN_ANOMALY":83.4034,"EPHEMERIS_TYPE":0,"CLASSIFICATION_TYPE":"U","NORAD_CAT_ID":67987,"ELEMENT_SET_NO":999,"REV_AT_EPOCH":521,"BSTAR":-0.045417579,"MEAN_MOTION_DOT":-0.01923141,"MEAN_MOTION_DDOT":0},{"OBJECT_NAME":"STARLINK-36734","OBJECT_ID":"2026-039C","EPOCH":"2026-03-24T06:00:02.000160","MEAN_MOTION":15.50619568,"ECCENTRICITY":0.00015544,"INCLINATION":42.9999,"RA_OF_ASC_NODE":328.4669,"ARG_OF_PERICENTER":266.2146,"MEAN_ANOMALY":329.859,"EPHEMERIS_TYPE":0,"CLASSIFICATION_TYPE":"U","NORAD_CAT_ID":67988,"ELEMENT_SET_NO":999,"REV_AT_EPOCH":521,"BSTAR":-0.0013397469,"MEAN_MOTION_DOT":-0.00078271,"MEAN_MOTION_DDOT":0},{"OBJECT_NAME":"STARLINK-36957","OBJECT_ID":"2026-039D","EPOCH":"2026-03-24T06:00:02.000160","MEAN_MOTION":15.47000897,"ECCENTRICITY":0.00013292,"INCLINATION":42.9996,"RA_OF_ASC_NODE":327.3552,"ARG_OF_PERICENTER":257.9616,"MEAN_ANOMALY":67.9252,"EPHEMERIS_TYPE":0,"CLASSIFICATION_TYPE":"U","NORAD_CAT_ID":67989,"ELEMENT_SET_NO":999,"REV_AT_EPOCH":521,"BSTAR":-0.041038539,"MEAN_MOTION_DOT":-0.01905076,"MEAN_MOTION_DDOT":0},{"OBJECT_NAME":"STARLINK-36951","OBJECT_ID":"2026-039E","EPOCH":"2026-03-24T06:00:02.000160","MEAN_MOTION":15.50622955,"ECCENTRICITY":0.00016762,"INCLINATION":42.9999,"RA_OF_ASC_NODE":327.5984,"ARG_OF_PERICENTER":271.8657,"MEAN_ANOMALY":315.4168,"EPHEMERIS_TYPE":0,"CLASSIFICATION_TYPE":"U","NORAD_CAT_ID":67990,"ELEMENT_SET_NO":999,"REV_AT_EPOCH":521,"BSTAR":-0.0015978777,"MEAN_MOTION_DOT":-0.00093122,"MEAN_MOTION_DDOT":0},{"OBJECT_NAME":"STARLINK-36941","OBJECT_ID":"2026-039F","EPOCH":"2026-03-23T22:47:18.404448","MEAN_MOTION":15.50579418,"ECCENTRICITY":0.0002125,"INCLINATION":43.0005,"RA_OF_ASC_NODE":330.2124,"ARG_OF_PERICENTER":274.1173,"MEAN_ANOMALY":85.9444,"EPHEMERIS_TYPE":0,"CLASSIFICATION_TYPE":"U","NORAD_CAT_ID":67991,"ELEMENT_SET_NO":999,"REV_AT_EPOCH":386,"BSTAR":0.0014103901,"MEAN_MOTION_DOT":0.00083288,"MEAN_MOTION_DDOT":0},{"OBJECT_NAME":"STARLINK-36950","OBJECT_ID":"2026-039G","EPOCH":"2026-03-23T23:40:42.388608","MEAN_MOTION":15.50573274,"ECCENTRICITY":0.00017751,"INCLINATION":42.999,"RA_OF_ASC_NODE":329.6174,"ARG_OF_PERICENTER":262.2251,"MEAN_ANOMALY":97.8408,"EPHEMERIS_TYPE":0,"CLASSIFICATION_TYPE":"U","NORAD_CAT_ID":67992,"ELEMENT_SET_NO":999,"REV_AT_EPOCH":387,"BSTAR":0.0013202378,"MEAN_MOTION_DOT":0.0007787,"MEAN_MOTION_DDOT":0},{"OBJECT_NAME":"STARLINK-36975","OBJECT_ID":"2026-039H","EPOCH":"2026-03-23T23:30:35.667072","MEAN_MOTION":15.5057809,"ECCENTRICITY":0.00019692,"INCLINATION":42.9997,"RA_OF_ASC_NODE":329.5617,"ARG_OF_PERICENTER":263.9555,"MEAN_ANOMALY":96.1081,"EPHEMERIS_TYPE":0,"CLASSIFICATION_TYPE":"U","NORAD_CAT_ID":67993,"ELEMENT_SET_NO":999,"REV_AT_EPOCH":387,"BSTAR":0.0013435173,"MEAN_MOTION_DOT":0.00079277,"MEAN_MOTION_DDOT":0},{"OBJECT_NAME":"STARLINK-36993","OBJECT_ID":"2026-039J","EPOCH":"2026-03-24T06:00:02.000160","MEAN_MOTION":15.51023906,"ECCENTRICITY":0.00020879,"INCLINATION":42.9996,"RA_OF_ASC_NODE":327.2733,"ARG_OF_PERICENTER":267.4071,"MEAN_ANOMALY":90.7547,"EPHEMERIS_TYPE":0,"CLASSIFICATION_TYPE":"U","NORAD_CAT_ID":67994,"ELEMENT_SET_NO":999,"REV_AT_EPOCH":521,"BSTAR":-0.029299302,"MEAN_MOTION_DOT":-0.01574253,"MEAN_MOTION_DDOT":0},{"OBJECT_NAME":"STARLINK-36968","OBJECT_ID":"2026-039K","EPOCH":"2026-03-23T22:18:44.288064","MEAN_MOTION":15.50577721,"ECCENTRICITY":0.00017378,"INCLINATION":43.0003,"RA_OF_ASC_NODE":330.0536,"ARG_OF_PERICENTER":271.756,"MEAN_ANOMALY":88.3101,"EPHEMERIS_TYPE":0,"CLASSIFICATION_TYPE":"U","NORAD_CAT_ID":67995,"ELEMENT_SET_NO":999,"REV_AT_EPOCH":386,"BSTAR":0.001158683,"MEAN_MOTION_DOT":0.00068225,"MEAN_MOTION_DDOT":0}]
